{
"type": "FeatureCollection",
"name": "hull",
"crs": { "type": "name", "properties": { "name": "urn:ogc:def:crs:OGC:1.3:CRS84" } },
"xy_coordinate_resolution": 1e-05,
"features": [
{"type":"Feature","properties":{},"geometry":{"type":"Polygon","coordinates":[[[-180.0,85.0],[180.0,85.0],[180.0,-85.0],[-180.0,-85.0],[-180.0,85.0]],[[151.05707,-33.88333],[151.04458,-33.88952],[151.0382,-33.90452],[151.03799,-33.90604],[151.03991,-33.91685],[151.04053,-33.9181],[151.04165,-33.91894],[151.04848,-33.9211],[151.06901,-33.92215],[151.09007,-33.92182],[151.09589,-33.92128],[151.11236,-33.92242],[151.18069,-33.92229],[151.19725,-33.92066],[151.20513,-33.9223],[151.2176,-33.92312],[151.25092,-33.92354],[151.26741,-33.91804],[151.26848,-33.9172],[151.27021,-33.91453],[151.275,-33.89988],[151.28168,-33.88551],[151.28755,-33.87446],[151.28758,-33.8729],[151.28563,-33.86647],[151.28923,-33.8496],[151.28543,-33.83826],[151.28185,-33.83487],[151.28022,-33.8344],[151.26101,-33.83379],[151.26056,-33.8267],[151.25471,-33.81458],[151.24897,-33.80604],[151.2474,-33.80539],[151.24329,-33.80555],[151.23547,-33.78828],[151.23256,-33.78375],[151.23147,-33.78282],[151.23008,-33.78251],[151.22748,-33.78292],[151.2076,-33.77675],[151.203,-33.77657],[151.19592,-33.77753],[151.16766,-33.78581],[151.14978,-33.78208],[151.14743,-33.78015],[151.14414,-33.77625],[151.13936,-33.76893],[151.12352,-33.7605],[151.11278,-33.7568],[151.10298,-33.75706],[151.09309,-33.7623],[151.06709,-33.7839],[151.06332,-33.78749],[151.06215,-33.78964],[151.06178,-33.80099],[151.0619,-33.80474],[151.06251,-33.80698],[151.07054,-33.81851],[151.07771,-33.83772],[151.0778,-33.84281],[151.076,-33.85078],[151.06258,-33.86116],[151.06214,-33.86266],[151.06231,-33.86899],[151.05707,-33.88333]]]}}
]
}
